{
  "links" : {
    "next" : "https://api.nasa.gov/neo/rest/v1/feed?start_date=2000-08-09&end_date=2000-08-09&detailed=true&api_key=t0TVs3DtDT2H8Oy2Zy8m2eVrNsAVKAexjcZXUckd",
    "prev" : "https://api.nasa.gov/neo/rest/v1/feed?start_date=2000-08-07&end_date=2000-08-07&detailed=true&api_key=t0TVs3DtDT2H8Oy2Zy8m2eVrNsAVKAexjcZXUckd",
    "self" : "https://api.nasa.gov/neo/rest/v1/feed?start_date=2000-08-08&end_date=2000-08-08&detailed=true&api_key=t0TVs3DtDT2H8Oy2Zy8m2eVrNsAVKAexjcZXUckd"
  },
  "element_count" : 6,
  "near_earth_objects" : {
    "2000-08-08" : [ {
      "links" : {
        "self" : "https://api.nasa.gov/neo/rest/v1/neo/3646734?api_key=t0TVs3DtDT2H8Oy2Zy8m2eVrNsAVKAexjcZXUckd"
      },
      "neo_reference_id" : "3646734",
      "name" : "(2013 QC11)",
      "nasa_jpl_url" : "http://ssd.jpl.nasa.gov/sbdb.cgi?sstr=3646734",
      "absolute_magnitude_h" : 21.6,
      "estimated_diameter" : {
        "kilometers" : {
          "estimated_diameter_min" : 0.1272198785,
          "estimated_diameter_max" : 0.2844722965
        },
        "meters" : {
          "estimated_diameter_min" : 127.2198785394,
          "estimated_diameter_max" : 284.4722965033
        },
        "miles" : {
          "estimated_diameter_min" : 0.0790507431,
          "estimated_diameter_max" : 0.1767628354
        },
        "feet" : {
          "estimated_diameter_min" : 417.3880663071,
          "estimated_diameter_max" : 933.3080892598
        }
      },
      "is_potentially_hazardous_asteroid" : true,
      "close_approach_data" : [ {
        "close_approach_date" : "2000-08-08",
        "epoch_date_close_approach" : 965718000000,
        "relative_velocity" : {
          "kilometers_per_second" : "16.9219194449",
          "kilometers_per_hour" : "60918.9100016965",
          "miles_per_hour" : "37852.6416063319"
        },
        "miss_distance" : {
          "astronomical" : "0.0884991217",
          "lunar" : "34.426158905",
          "kilometers" : "13239280",
          "miles" : "8226507.5"
        },
        "orbiting_body" : "Earth"
      } ],
      "orbital_data" : {
        "orbit_id" : "19",
        "orbit_determination_date" : "2017-04-06 08:45:02",
        "orbit_uncertainty" : "1",
        "minimum_orbit_intersection" : ".031109",
        "jupiter_tisserand_invariant" : "4.289",
        "epoch_osculation" : "2458000.5",
        "eccentricity" : ".6189087825825096",
        "semi_major_axis" : "1.511095676652146",
        "inclination" : "2.144367466202242",
        "ascending_node_longitude" : "250.5930476099334",
        "orbital_period" : "678.478939568696",
        "perihelion_distance" : ".5758652910496729",
        "perihelion_argument" : "332.5616243790551",
        "aphelion_distance" : "2.44632606225462",
        "perihelion_time" : "2457820.926469768332",
        "mean_anomaly" : "95.28147023177415",
        "mean_motion" : ".5305986361623094",
        "equinox" : "J2000"
      }
    }, {
      "links" : {
        "self" : "https://api.nasa.gov/neo/rest/v1/neo/3743610?api_key=t0TVs3DtDT2H8Oy2Zy8m2eVrNsAVKAexjcZXUckd"
      },
      "neo_reference_id" : "3743610",
      "name" : "(2016 CF194)",
      "nasa_jpl_url" : "http://ssd.jpl.nasa.gov/sbdb.cgi?sstr=3743610",
      "absolute_magnitude_h" : 24.1,
      "estimated_diameter" : {
        "kilometers" : {
          "estimated_diameter_min" : 0.040230458,
          "estimated_diameter_max" : 0.0899580388
        },
        "meters" : {
          "estimated_diameter_min" : 40.2304579834,
          "estimated_diameter_max" : 89.9580388169
        },
        "miles" : {
          "estimated_diameter_min" : 0.0249980399,
          "estimated_diameter_max" : 0.0558973165
        },
        "feet" : {
          "estimated_diameter_min" : 131.9896957704,
          "estimated_diameter_max" : 295.1379320721
        }
      },
      "is_potentially_hazardous_asteroid" : false,
      "close_approach_data" : [ {
        "close_approach_date" : "2000-08-08",
        "epoch_date_close_approach" : 965718000000,
        "relative_velocity" : {
          "kilometers_per_second" : "4.4239578881",
          "kilometers_per_hour" : "15926.2483972291",
          "miles_per_hour" : "9895.9513999338"
        },
        "miss_distance" : {
          "astronomical" : "0.3382392658",
          "lunar" : "131.5750732422",
          "kilometers" : "50599872",
          "miles" : "31441304"
        },
        "orbiting_body" : "Earth"
      } ],
      "orbital_data" : {
        "orbit_id" : "38",
        "orbit_determination_date" : "2017-04-20 12:26:27",
        "orbit_uncertainty" : "4",
        "minimum_orbit_intersection" : ".0344087",
        "jupiter_tisserand_invariant" : "5.008",
        "epoch_osculation" : "2458000.5",
        "eccentricity" : ".2043162313789721",
        "semi_major_axis" : "1.290002690606399",
        "inclination" : "1.642619370645598",
        "ascending_node_longitude" : "114.9702993628403",
        "orbital_period" : "535.1608699591621",
        "perihelion_distance" : "1.026434202392965",
        "perihelion_argument" : "101.3042524777306",
        "aphelion_distance" : "1.553571178819832",
        "perihelion_time" : "2458043.719728874056",
        "mean_anomaly" : "330.926307829929",
        "mean_motion" : ".672694922607984",
        "equinox" : "J2000"
      }
    }, {
      "links" : {
        "self" : "https://api.nasa.gov/neo/rest/v1/neo/3716630?api_key=t0TVs3DtDT2H8Oy2Zy8m2eVrNsAVKAexjcZXUckd"
      },
      "neo_reference_id" : "3716630",
      "name" : "(2015 HF9)",
      "nasa_jpl_url" : "http://ssd.jpl.nasa.gov/sbdb.cgi?sstr=3716630",
      "absolute_magnitude_h" : 20.3,
      "estimated_diameter" : {
        "kilometers" : {
          "estimated_diameter_min" : 0.2315021222,
          "estimated_diameter_max" : 0.5176544822
        },
        "meters" : {
          "estimated_diameter_min" : 231.5021222103,
          "estimated_diameter_max" : 517.6544821978
        },
        "miles" : {
          "estimated_diameter_min" : 0.1438487052,
          "estimated_diameter_max" : 0.3216554833
        },
        "feet" : {
          "estimated_diameter_min" : 759.5214226325,
          "estimated_diameter_max" : 1698.3415313737
        }
      },
      "is_potentially_hazardous_asteroid" : false,
      "close_approach_data" : [ {
        "close_approach_date" : "2000-08-08",
        "epoch_date_close_approach" : 965718000000,
        "relative_velocity" : {
          "kilometers_per_second" : "21.7988952859",
          "kilometers_per_hour" : "78476.0230292321",
          "miles_per_hour" : "48761.9488650248"
        },
        "miss_distance" : {
          "astronomical" : "0.3200918364",
          "lunar" : "124.5157241821",
          "kilometers" : "47885060",
          "miles" : "29754396"
        },
        "orbiting_body" : "Earth"
      } ],
      "orbital_data" : {
        "orbit_id" : "10",
        "orbit_determination_date" : "2017-07-16 06:21:40",
        "orbit_uncertainty" : "3",
        "minimum_orbit_intersection" : ".246397",
        "jupiter_tisserand_invariant" : "4.685",
        "epoch_osculation" : "2458000.5",
        "eccentricity" : ".5404088641111258",
        "semi_major_axis" : "1.346834631849346",
        "inclination" : "16.41260761365391",
        "ascending_node_longitude" : "211.7190004547103",
        "orbital_period" : "570.9128781035132",
        "perihelion_distance" : ".6189932583061145",
        "perihelion_argument" : "204.3157396037926",
        "aphelion_distance" : "2.074676005392577",
        "perihelion_time" : "2458096.131305936009",
        "mean_anomaly" : "299.6978567880172",
        "mean_motion" : ".6305690654515728",
        "equinox" : "J2000"
      }
    } ]
  }
}